NORAD_CAT_ID,OBJECT_NAME,OBJECT_TYPE,EPOCH,MEAN_MOTION,ECCENTRICITY,INCLINATION,RA_OF_ASC_NODE,ARG_OF_PERICENTER,MEAN_ANOMALY,BSTAR,MEAN_MOTION_DOT,MEAN_MOTION_DDOT,TLE_LINE0,TLE_LINE1,TLE_LINE2,SEMIMAJOR_AXIS,PERIOD,APOGEE,PERIGEE,DECAYED
52138.0,STARLINK-3723,PAYLOAD,2023-05-05 05:18:30,15.08855649,0.0001004,53.2171,55.4722,83.6223,276.4884,0.00010648,1.408e-05,0.0,0 STARLINK-3723,1 52138U 22029BC  23125.22118603  .00001408  00000-0  10648-3 0  9995,2 52138  53.2171  55.4722 0001004  83.6223 276.4884 15.08855649 64015,6917.833,95.437,540.392,539.003,0.0
52138.0,STARLINK-3723,PAYLOAD,2023-05-06 01:58:32,15.08838081,9.92e-05,53.2168,51.6073,83.4647,276.6458,8.2345e-06,-1.57e-06,0.0,0 STARLINK-3723,1 52138U 22029BC  23126.08232324 -.00000157  00000-0  82345-5 0  9993,2 52138  53.2168  51.6073 0000992  83.4647 276.6458 15.08838081 64145,6917.886,95.438,540.438,539.065,0.0
52138.0,STARLINK-3723,PAYLOAD,2023-05-07 03:24:42,15.08842098,0.0001099,53.2171,46.8497,94.1093,266.0025,0.00019201,2.77e-05,0.0,0 STARLINK-3723,1 52138U 22029BC  23127.14215672  .00002770  00000-0  19201-3 0  9999,2 52138  53.2171  46.8497 0001099  94.1093 266.0025 15.08842098 64302,6917.874,95.437,540.499,538.979,0.0
52138.0,STARLINK-3723,PAYLOAD,2023-05-07 22:29:21,15.08827412,0.0001111,53.2174,43.2808,97.7424,262.3694,-1.2005e-05,-4.79e-06,0.0,0 STARLINK-3723,1 52138U 22029BC  23127.93705651 -.00000479  00000-0 -12005-4 0  9999,2 52138  53.2174  43.2808 0001111  97.7424 262.3694 15.08827412 64421,6917.919,95.438,540.552,539.015,0.0
52138.0,STARLINK-3723,PAYLOAD,2023-05-08 03:15:30,15.08833789,0.0001254,53.2185,42.3871,78.4633,281.65,3.9889e-05,3.47e-06,0.0,0 STARLINK-3723,1 52138U 22029BC  23128.13577366  .00000347  00000-0  39889-4 0  9993,2 52138  53.2185  42.3871 0001254  78.4633 281.6500 15.08833789 64456,6917.899,95.438,540.632,538.897,0.0
52138.0,STARLINK-3723,PAYLOAD,2023-05-08 22:20:07,15.08849178,0.000116,53.2184,38.8185,90.0769,270.0356,0.00011062,1.474e-05,0.0,0 STARLINK-3723,1 52138U 22029BC  23128.93064328  .00001474  00000-0  11062-3 0  9994,2 52138  53.2184  38.8185 0001160  90.0769 270.0356 15.08849178 64572,6917.852,95.437,540.52,538.915,0.0
52138.0,STARLINK-3723,PAYLOAD,2023-05-09 01:30:53,15.08853179,0.0001213,53.2184,38.2242,86.9952,273.1179,0.00016024,2.264e-05,0.0,0 STARLINK-3723,1 52138U 22029BC  23129.06311983  .00002264  00000-0  16024-3 0  9992,2 52138  53.2184  38.2242 0001213  86.9952 273.1179 15.08853179 64592,6917.84,95.437,540.544,538.866,0.0
52138.0,STARLINK-3723,PAYLOAD,2023-05-10 01:21:41,15.08840529,0.0001391,53.2175,33.764,90.3526,269.7626,0.00012494,1.701e-05,0.0,0 STARLINK-3723,1 52138U 22029BC  23130.05673117  .00001701  00000-0  12494-3 0  9995,2 52138  53.2175  33.7640 0001391  90.3526 269.7626 15.08840529 64747,6917.879,95.438,540.706,538.781,0.0
52138.0,STARLINK-3723,PAYLOAD,2023-05-10 23:37:04,15.08852449,0.0001168,53.2173,29.6029,95.9663,264.1462,7.688e-05,9.36e-06,0.0,0 STARLINK-3723,1 52138U 22029BC  23130.98408211  .00000936  00000-0  76880-4 0  9997,2 52138  53.2173  29.6029 0001168  95.9663 264.1462 15.08852449 64881,6917.842,95.437,540.515,538.899,0.0
52138.0,STARLINK-3723,PAYLOAD,2023-05-11 20:17:06,15.0884052,0.0001193,53.2174,25.738,76.2632,283.8493,4.3125e-05,3.99e-06,0.0,0 STARLINK-3723,1 52138U 22029BC  23131.84521157  .00000399  00000-0  43125-4 0  9997,2 52138  53.2174  25.7380 0001193  76.2632 283.8493 15.08840520 65010,6917.879,95.438,540.569,538.918,0.0
52138.0,STARLINK-3723,PAYLOAD,2023-05-11 23:27:52,15.0883894,0.0001064,53.2174,25.1426,93.2458,266.8656,2.5812e-05,1.23e-06,0.0,0 STARLINK-3723,1 52138U 22029BC  23131.97769140  .00000123  00000-0  25812-4 0  9995,2 52138  53.2174  25.1426 0001064  93.2458 266.8656 15.08838940 65034,6917.884,95.438,540.485,539.013,0.0
52138.0,STARLINK-3723,PAYLOAD,2023-05-12 20:07:54,15.08827822,0.0001069,53.2168,21.2758,95.6958,264.4156,-0.00017112,-3.009e-05,0.0,0 STARLINK-3723,1 52138U 22029BC  23132.83882233 -.00003009  00000-0 -17112-3 0  9991,2 52138  53.2168  21.2758 0001069  95.6958 264.4156 15.08827822 65168,6917.918,95.438,540.522,539.043,0.0
52138.0,STARLINK-3723,PAYLOAD,2023-05-12 23:18:40,15.08828953,0.0001081,53.2169,20.6808,97.4178,262.6937,-0.0001368,-2.464e-05,0.0,0 STARLINK-3723,1 52138U 22029BC  23132.97130281 -.00002464  00000-0 -13680-3 0  9995,2 52138  53.2169  20.6808 0001081  97.4178 262.6937 15.08828953 65181,6917.914,95.438,540.527,539.031,0.0
52138.0,STARLINK-3723,PAYLOAD,2023-05-13 19:58:41,15.0884288,9.35e-05,53.217,16.8158,101.9394,258.1703,0.00015929,2.248e-05,0.0,0 STARLINK-3723,1 52138U 22029BC  23133.83241909  .00002248  00000-0  15929-3 0  9997,2 52138  53.2170  16.8158 0000935 101.9394 258.1703 15.08842880 65317,6917.872,95.437,540.383,539.09,0.0
52138.0,STARLINK-3723,PAYLOAD,2023-05-13 21:34:04,15.08846554,0.0001108,53.2165,16.5174,109.5362,250.575,0.00019644,2.84e-05,0.0,0 STARLINK-3723,1 52138U 22029BC  23133.89865827  .00002840  00000-0  19644-3 0  9990,2 52138  53.2165  16.5174 0001108 109.5362 250.5750 15.08846554 65329,6917.86,95.437,540.492,538.959,0.0
52138.0,STARLINK-3723,PAYLOAD,2023-05-13 23:09:26,15.08856368,0.0001007,53.2168,16.2218,104.9445,255.1659,0.00040713,6.2e-05,0.0,0 STARLINK-3723,1 52138U 22029BC  23133.96489216  .00006200  00000-0  40713-3 0  9997,2 52138  53.2168  16.2218 0001007 104.9445 255.1659 15.08856368 65331,6917.83,95.437,540.392,538.999,0.0
52138.0,STARLINK-3723,PAYLOAD,2023-05-14 19:49:28,15.08837316,8.36e-05,53.2172,12.3551,102.0967,258.0119,0.00016612,2.357e-05,0.0,0 STARLINK-3723,1 52138U 22029BC  23134.82602092  .00002357  00000-0  16612-3 0  9992,2 52138  53.2172  12.3551 0000836 102.0967 258.0119 15.08837316 65469,6917.889,95.438,540.332,539.175,0.0
52138.0,STARLINK-3723,PAYLOAD,2023-05-14 21:24:51,15.08837721,8.14e-05,53.2172,12.0578,100.0435,260.0649,0.00016254,2.3e-05,0.0,0 STARLINK-3723,1 52138U 22029BC  23134.89226060  .00002300  00000-0  16254-3 0  9996,2 52138  53.2172  12.0578 0000814 100.0435 260.0649 15.08837721 65471,6917.887,95.438,540.315,539.189,0.0
52138.0,STARLINK-3723,PAYLOAD,2023-05-15 08:32:33,15.08838358,8.56e-05,53.2178,9.9762,91.9618,268.1473,2.1224e-05,5e-07,0.0,0 STARLINK-3723,1 52138U 22029BC  23135.35594284  .00000050  00000-0  21224-4 0  9998,2 52138  53.2178   9.9762 0000856  91.9618 268.1473 15.08838358 65543,6917.885,95.438,540.343,539.158,0.0
52138.0,STARLINK-3723,PAYLOAD,2023-05-16 00:26:24,15.08847183,9.33e-05,53.218,7.0029,104.8513,255.2582,-4.3334e-05,-9.77e-06,0.0,0 STARLINK-3723,1 52138U 22029BC  23136.01833762 -.00000977  00000-0 -43334-4 0  9995,2 52138  53.2180   7.0029 0000933 104.8513 255.2582 15.08847183 65640,6917.858,95.437,540.369,539.078,0.0
52138.0,STARLINK-3723,PAYLOAD,2023-05-16 17:55:39,15.08837828,9.33e-05,53.2178,3.7321,92.6478,267.4621,3.2758e-05,2.34e-06,0.0,0 STARLINK-3723,1 52138U 22029BC  23136.74698074  .00000234  00000-0  32758-4 0  9992,2 52138  53.2178   3.7321 0000933  92.6478 267.4621 15.08837828 65755,6917.887,95.438,540.397,539.107,0.0
52138.0,STARLINK-3723,PAYLOAD,2023-05-16 22:41:48,15.08843117,9.27e-05,53.2176,2.8398,91.1431,268.9668,7.7482e-05,9.46e-06,0.0,0 STARLINK-3723,1 52138U 22029BC  23136.94569626  .00000946  00000-0  77482-4 0  9997,2 52138  53.2176   2.8398 0000927  91.1431 268.9668 15.08843117 65781,6917.871,95.437,540.377,539.095,0.0
52138.0,STARLINK-3723,PAYLOAD,2023-05-17 20:57:12,15.08837595,9.23e-05,53.2172,358.6778,84.2955,275.8142,-1.6249e-05,-5.46e-06,0.0,0 STARLINK-3723,1 52138U 22029BC  23137.87306472 -.00000546  00000-0 -16249-4 0  9990,2 52138  53.2172 358.6778 0000923  84.2955 275.8142 15.08837595 65924,6917.888,95.438,540.391,539.114,0.0
52138.0,STARLINK-3723,PAYLOAD,2023-05-18 01:43:21,15.08839908,0.0001024,53.2182,357.783,92.3655,267.7454,7.0765e-05,8.39e-06,0.0,0 STARLINK-3723,1 52138U 22029BC  23138.07178015  .00000839  00000-0  70765-4 0  9999,2 52138  53.2182 357.7830 0001024  92.3655 267.7454 15.08839908 65953,6917.881,95.438,540.454,539.037,0.0
52138.0,STARLINK-3723,PAYLOAD,2023-05-18 14:26:26,15.08850638,0.0001079,53.2174,355.4044,89.5466,270.565,-7.5595e-05,-1.491e-05,0.0,0 STARLINK-3723,1 52138U 22029BC  23138.60170002 -.00001491  00000-0 -75595-4 0  9999,2 52138  53.2174 355.4044 0001079  89.5466 270.5650 15.08850638 66037,6917.848,95.437,540.459,538.966,0.0
52138.0,STARLINK-3723,PAYLOAD,2023-05-18 20:47:58,15.08852205,0.0001102,53.2166,354.2159,95.7566,264.3552,2.3568e-06,-2.5e-06,0.0,0 STARLINK-3723,1 52138U 22029BC  23138.86665443 -.00000250  00000-0  23568-5 0  9990,2 52138  53.2166 354.2159 0001102  95.7566 264.3552 15.08852205 66077,6917.843,95.437,540.47,538.946,0.0
52138.0,STARLINK-3723,PAYLOAD,2023-05-19 20:38:46,15.08843604,9.92e-05,53.2169,349.7568,86.3613,273.7493,4.6148e-05,4.47e-06,0.0,0 STARLINK-3723,1 52138U 22029BC  23139.86025786  .00000447  00000-0  46148-4 0  9996,2 52138  53.2169 349.7568 0000992  86.3613 273.7493 15.08843604 66226,6917.869,95.437,540.421,539.048,0.0
52138.0,STARLINK-3723,PAYLOAD,2023-05-20 20:29:32,15.08853242,8.53e-05,53.2175,345.2959,87.8867,272.2223,9.2967e-05,1.193e-05,0.0,0 STARLINK-3723,1 52138U 22029BC  23140.85384793  .00001193  00000-0  92967-4 0  9992,2 52138  53.2175 345.2959 0000853  87.8867 272.2223 15.08853242 66371,6917.84,95.437,540.295,539.115,0.0
52138.0,STARLINK-3723,PAYLOAD,2023-05-21 06:01:52,15.08839567,7.7e-05,53.2166,343.5123,79.4864,280.6215,2.2141e-05,6.5e-07,0.0,0 STARLINK-3723,1 52138U 22029BC  23141.25129781  .00000065  00000-0  22141-4 0  9995,2 52138  53.2166 343.5123 0000770  79.4864 280.6215 15.08839567 66432,6917.882,95.438,540.279,539.214,0.0
52138.0,STARLINK-3723,PAYLOAD,2023-05-21 13:58:49,15.08819551,8.95e-05,53.2172,342.0248,98.6302,261.4792,-0.00012082,-2.209e-05,0.0,0 STARLINK-3723,1 52138U 22029BC  23141.58251667 -.00002209  00000-0 -12082-3 0  9996,2 52138  53.2172 342.0248 0000895  98.6302 261.4792 15.08819551 66482,6917.943,95.439,540.427,539.189,0.0
